<?xml version="1.0" encoding="UTF-8"?>
<ndm xmlns:xsi="http://www.w3.org/2001/XMLSchema-instance" xsi:noNamespaceSchemaLocation="https://sanaregistry.org/r/ndmxml_unqualified/ndmxml-2.0.0-master-2.0.xsd">
<omm id="CCSDS_OMM_VERS" version="2.0">
<header><CREATION_DATE/><ORIGINATOR/></header><body><segment><metadata><OBJECT_NAME>ONEWEB-0033</OBJECT_NAME><OBJECT_ID>2020-008M</OBJECT_ID><CENTER_NAME>EARTH</CENTER_NAME><REF_FRAME>TEME</REF_FRAME><TIME_SYSTEM>UTC</TIME_SYSTEM><MEAN_ELEMENT_THEORY>SGP4</MEAN_ELEMENT_THEORY></metadata><data><meanElements><EPOCH>2024-09-16T18:43:55.187040</EPOCH><MEAN_MOTION>13.10377459</MEAN_MOTION><ECCENTRICITY>.0002025</ECCENTRICITY><INCLINATION>87.8982</INCLINATION><RA_OF_ASC_NODE>163.3520</RA_OF_ASC_NODE><ARG_OF_PERICENTER>77.4636</ARG_OF_PERICENTER><MEAN_ANOMALY>282.6718</MEAN_ANOMALY></meanElements><tleParameters><EPHEMERIS_TYPE>0</EPHEMERIS_TYPE><CLASSIFICATION_TYPE>U</CLASSIFICATION_TYPE><NORAD_CAT_ID>45142</NORAD_CAT_ID><ELEMENT_SET_NO>999</ELEMENT_SET_NO><REV_AT_EPOCH>22460</REV_AT_EPOCH><BSTAR>-.14499E-3</BSTAR><MEAN_MOTION_DOT>-.38E-6</MEAN_MOTION_DOT><MEAN_MOTION_DDOT>0</MEAN_MOTION_DDOT></tleParameters></data></segment></body></omm>
<omm id="CCSDS_OMM_VERS" version="2.0">
<header><CREATION_DATE/><ORIGINATOR/></header><body><segment><metadata><OBJECT_NAME>ONEWEB-0035</OBJECT_NAME><OBJECT_ID>2020-008N</OBJECT_ID><CENTER_NAME>EARTH</CENTER_NAME><REF_FRAME>TEME</REF_FRAME><TIME_SYSTEM>UTC</TIME_SYSTEM><MEAN_ELEMENT_THEORY>SGP4</MEAN_ELEMENT_THEORY></metadata><data><meanElements><EPOCH>2024-09-16T17:39:22.523904</EPOCH><MEAN_MOTION>13.10375878</MEAN_MOTION><ECCENTRICITY>.0002009</ECCENTRICITY><INCLINATION>87.8985</INCLINATION><RA_OF_ASC_NODE>163.3464</RA_OF_ASC_NODE><ARG_OF_PERICENTER>73.7743</ARG_OF_PERICENTER><MEAN_ANOMALY>286.3606</MEAN_ANOMALY></meanElements><tleParameters><EPHEMERIS_TYPE>0</EPHEMERIS_TYPE><CLASSIFICATION_TYPE>U</CLASSIFICATION_TYPE><NORAD_CAT_ID>45143</NORAD_CAT_ID><ELEMENT_SET_NO>999</ELEMENT_SET_NO><REV_AT_EPOCH>22432</REV_AT_EPOCH><BSTAR>.62298E-3</BSTAR><MEAN_MOTION_DOT>.23E-5</MEAN_MOTION_DOT><MEAN_MOTION_DDOT>0</MEAN_MOTION_DDOT></tleParameters></data></segment></body></omm>
<omm id="CCSDS_OMM_VERS" version="2.0">
<header><CREATION_DATE/><ORIGINATOR/></header><body><segment><metadata><OBJECT_NAME>ONEWEB-0036</OBJECT_NAME><OBJECT_ID>2020-008P</OBJECT_ID><CENTER_NAME>EARTH</CENTER_NAME><REF_FRAME>TEME</REF_FRAME><TIME_SYSTEM>UTC</TIME_SYSTEM><MEAN_ELEMENT_THEORY>SGP4</MEAN_ELEMENT_THEORY></metadata><data><meanElements><EPOCH>2024-09-16T17:25:03.815904</EPOCH><MEAN_MOTION>13.10373807</MEAN_MOTION><ECCENTRICITY>.000177</ECCENTRICITY><INCLINATION>87.8979</INCLINATION><RA_OF_ASC_NODE>163.3026</RA_OF_ASC_NODE><ARG_OF_PERICENTER>64.9569</ARG_OF_PERICENTER><MEAN_ANOMALY>295.1742</MEAN_ANOMALY></meanElements><tleParameters><EPHEMERIS_TYPE>0</EPHEMERIS_TYPE><CLASSIFICATION_TYPE>U</CLASSIFICATION_TYPE><NORAD_CAT_ID>45144</NORAD_CAT_ID><ELEMENT_SET_NO>999</ELEMENT_SET_NO><REV_AT_EPOCH>22475</REV_AT_EPOCH><BSTAR>.17744E-2</BSTAR><MEAN_MOTION_DOT>.632E-5</MEAN_MOTION_DOT><MEAN_MOTION_DDOT>0</MEAN_MOTION_DDOT></tleParameters></data></segment></body></omm>
<omm id="CCSDS_OMM_VERS" version="2.0">
<header><CREATION_DATE/><ORIGINATOR/></header><body><segment><metadata><OBJECT_NAME>ONEWEB-0038</OBJECT_NAME><OBJECT_ID>2020-008Q</OBJECT_ID><CENTER_NAME>EARTH</CENTER_NAME><REF_FRAME>TEME</REF_FRAME><TIME_SYSTEM>UTC</TIME_SYSTEM><MEAN_ELEMENT_THEORY>SGP4</MEAN_ELEMENT_THEORY></metadata><data><meanElements><EPOCH>2024-09-16T16:55:53.837472</EPOCH><MEAN_MOTION>13.11412389</MEAN_MOTION><ECCENTRICITY>.0001092</ECCENTRICITY><INCLINATION>87.8971</INCLINATION><RA_OF_ASC_NODE>148.2177</RA_OF_ASC_NODE><ARG_OF_PERICENTER>92.2859</ARG_OF_PERICENTER><MEAN_ANOMALY>267.8394</MEAN_ANOMALY></meanElements><tleParameters><EPHEMERIS_TYPE>0</EPHEMERIS_TYPE><CLASSIFICATION_TYPE>U</CLASSIFICATION_TYPE><NORAD_CAT_ID>45145</NORAD_CAT_ID><ELEMENT_SET_NO>999</ELEMENT_SET_NO><REV_AT_EPOCH>22664</REV_AT_EPOCH><BSTAR>-.59233E-3</BSTAR><MEAN_MOTION_DOT>-.197E-5</MEAN_MOTION_DOT><MEAN_MOTION_DDOT>0</MEAN_MOTION_DDOT></tleParameters></data></segment></body></omm>
<omm id="CCSDS_OMM_VERS" version="2.0">
<header><CREATION_DATE/><ORIGINATOR/></header><body><segment><metadata><OBJECT_NAME>ONEWEB-0039</OBJECT_NAME><OBJECT_ID>2020-008R</OBJECT_ID><CENTER_NAME>EARTH</CENTER_NAME><REF_FRAME>TEME</REF_FRAME><TIME_SYSTEM>UTC</TIME_SYSTEM><MEAN_ELEMENT_THEORY>SGP4</MEAN_ELEMENT_THEORY></metadata><data><meanElements><EPOCH>2024-09-16T18:48:42.670944</EPOCH><MEAN_MOTION>13.10376644</MEAN_MOTION><ECCENTRICITY>.000155</ECCENTRICITY><INCLINATION>87.8985</INCLINATION><RA_OF_ASC_NODE>163.3099</RA_OF_ASC_NODE><ARG_OF_PERICENTER>62.0786</ARG_OF_PERICENTER><MEAN_ANOMALY>298.0498</MEAN_ANOMALY></meanElements><tleParameters><EPHEMERIS_TYPE>0</EPHEMERIS_TYPE><CLASSIFICATION_TYPE>U</CLASSIFICATION_TYPE><NORAD_CAT_ID>45146</NORAD_CAT_ID><ELEMENT_SET_NO>999</ELEMENT_SET_NO><REV_AT_EPOCH>22455</REV_AT_EPOCH><BSTAR>.29444E-3</BSTAR><MEAN_MOTION_DOT>.115E-5</MEAN_MOTION_DOT><MEAN_MOTION_DDOT>0</MEAN_MOTION_DDOT></tleParameters></data></segment></body></omm>
<omm id="CCSDS_OMM_VERS" version="2.0">
<header><CREATION_DATE/><ORIGINATOR/></header><body><segment><metadata><OBJECT_NAME>ONEWEB-0040</OBJECT_NAME><OBJECT_ID>2020-008S</OBJECT_ID><CENTER_NAME>EARTH</CENTER_NAME><REF_FRAME>TEME</REF_FRAME><TIME_SYSTEM>UTC</TIME_SYSTEM><MEAN_ELEMENT_THEORY>SGP4</MEAN_ELEMENT_THEORY></metadata><data><meanElements><EPOCH>2024-09-16T18:39:08.122176</EPOCH><MEAN_MOTION>13.10377137</MEAN_MOTION><ECCENTRICITY>.0001737</ECCENTRICITY><INCLINATION>87.8994</INCLINATION><RA_OF_ASC_NODE>163.3187</RA_OF_ASC_NODE><ARG_OF_PERICENTER>73.2576</ARG_OF_PERICENTER><MEAN_ANOMALY>286.8742</MEAN_ANOMALY></meanElements><tleParameters><EPHEMERIS_TYPE>0</EPHEMERIS_TYPE><CLASSIFICATION_TYPE>U</CLASSIFICATION_TYPE><NORAD_CAT_ID>45147</NORAD_CAT_ID><ELEMENT_SET_NO>999</ELEMENT_SET_NO><REV_AT_EPOCH>22425</REV_AT_EPOCH><BSTAR>-.61973E-3</BSTAR><MEAN_MOTION_DOT>-.204E-5</MEAN_MOTION_DOT><MEAN_MOTION_DDOT>0</MEAN_MOTION_DDOT></tleParameters></data></segment></body></omm>
<omm id="CCSDS_OMM_VERS" version="2.0">
<header><CREATION_DATE/><ORIGINATOR/></header><body><segment><metadata><OBJECT_NAME>ONEWEB-0043</OBJECT_NAME><OBJECT_ID>2020-008U</OBJECT_ID><CENTER_NAME>EARTH</CENTER_NAME><REF_FRAME>TEME</REF_FRAME><TIME_SYSTEM>UTC</TIME_SYSTEM><MEAN_ELEMENT_THEORY>SGP4</MEAN_ELEMENT_THEORY></metadata><data><meanElements><EPOCH>2024-09-16T18:41:31.453728</EPOCH><MEAN_MOTION>13.10377304</MEAN_MOTION><ECCENTRICITY>.0001511</ECCENTRICITY><INCLINATION>87.8989</INCLINATION><RA_OF_ASC_NODE>163.3202</RA_OF_ASC_NODE><ARG_OF_PERICENTER>59.9412</ARG_OF_PERICENTER><MEAN_ANOMALY>300.1865</MEAN_ANOMALY></meanElements><tleParameters><EPHEMERIS_TYPE>0</EPHEMERIS_TYPE><CLASSIFICATION_TYPE>U</CLASSIFICATION_TYPE><NORAD_CAT_ID>45149</NORAD_CAT_ID><ELEMENT_SET_NO>999</ELEMENT_SET_NO><REV_AT_EPOCH>22457</REV_AT_EPOCH><BSTAR>-.31775E-3</BSTAR><MEAN_MOTION_DOT>-.98E-6</MEAN_MOTION_DOT><MEAN_MOTION_DDOT>0</MEAN_MOTION_DDOT></tleParameters></data></segment></body></omm>
<omm id="CCSDS_OMM_VERS" version="2.0">
<header><CREATION_DATE/><ORIGINATOR/></header><body><segment><metadata><OBJECT_NAME>ONEWEB-0044</OBJECT_NAME><OBJECT_ID>2020-008V</OBJECT_ID><CENTER_NAME>EARTH</CENTER_NAME><REF_FRAME>TEME</REF_FRAME><TIME_SYSTEM>UTC</TIME_SYSTEM><MEAN_ELEMENT_THEORY>SGP4</MEAN_ELEMENT_THEORY></metadata><data><meanElements><EPOCH>2024-09-16T19:22:11.424288</EPOCH><MEAN_MOTION>13.10372513</MEAN_MOTION><ECCENTRICITY>.0001596</ECCENTRICITY><INCLINATION>87.8980</INCLINATION><RA_OF_ASC_NODE>163.3090</RA_OF_ASC_NODE><ARG_OF_PERICENTER>66.3843</ARG_OF_PERICENTER><MEAN_ANOMALY>293.7451</MEAN_ANOMALY></meanElements><tleParameters><EPHEMERIS_TYPE>0</EPHEMERIS_TYPE><CLASSIFICATION_TYPE>U</CLASSIFICATION_TYPE><NORAD_CAT_ID>45150</NORAD_CAT_ID><ELEMENT_SET_NO>999</ELEMENT_SET_NO><REV_AT_EPOCH>22564</REV_AT_EPOCH><BSTAR>.12908E-2</BSTAR><MEAN_MOTION_DOT>.463E-5</MEAN_MOTION_DOT><MEAN_MOTION_DDOT>0</MEAN_MOTION_DDOT></tleParameters></data></segment></body></omm>

</ndm>
