ONEWEB-0033             
1 45142U 20008M   24260.78049985 -.00000038  00000+0 -14499-3 0  9992
2 45142  87.8982 163.3520 0002025  77.4636 282.6718 13.10377459224600
ONEWEB-0035             
1 45143U 20008N   24260.73567736  .00000230  00000+0  62298-3 0  9999
2 45143  87.8985 163.3464 0002009  73.7743 286.3606 13.10375878224320
ONEWEB-0036             
1 45144U 20008P   24260.72573861  .00000632  00000+0  17744-2 0  9996
2 45144  87.8979 163.3026 0001770  64.9569 295.1742 13.10373807224756
ONEWEB-0038             
1 45145U 20008Q   24260.70548423 -.00000197  00000+0 -59233-3 0  9999
2 45145  87.8971 148.2177 0001092  92.2859 267.8394 13.11412389226640
ONEWEB-0039             
1 45146U 20008R   24260.78382721  .00000115  00000+0  29444-3 0  9994
2 45146  87.8985 163.3099 0001550  62.0786 298.0498 13.10376644224551
ONEWEB-0040             
1 45147U 20008S   24260.77717734 -.00000204  00000+0 -61973-3 0  9994
2 45147  87.8994 163.3187 0001737  73.2576 286.8742 13.10377137224250
ONEWEB-0043             
1 45149U 20008U   24260.77883627 -.00000098  00000+0 -31775-3 0  9999
2 45149  87.8989 163.3202 0001511  59.9412 300.1865 13.10377304224571
ONEWEB-0044             
1 45150U 20008V   24260.80707667  .00000463  00000+0  12908-2 0  9994
2 45150  87.8980 163.3090 0001596  66.3843 293.7451 13.10372513225646
